{"type": "FeatureCollection", "features": [ {"type": "Feature", "properties": {"norad_id": 39019, "name": "PLEIADES 1B", "group": "resource", "lat": 42.2342356242968, "lon": -101.2484637282505, "alt_km": 693.872776202973, "timestamp": "2025-12-24T18:55:55.714070+00:00", "meta": {"OBJECT_NAME": "PLEIADES 1B", "OBJECT_ID": "2012-068A", "EPOCH": "2025-12-24T06:46:49.994112", "MEAN_MOTION": 14.58563037, "ECCENTRICITY": 0.00011432, "INCLINATION": 98.1782, "RA_OF_ASC_NODE": 70.7517, "ARG_OF_PERICENTER": 86.4343, "MEAN_ANOMALY": 273.6987, "EPHEMERIS_TYPE": 0, "CLASSIFICATION_TYPE": "U", "NORAD_CAT_ID": 39019, "ELEMENT_SET_NO": 999, "REV_AT_EPOCH": 69535, "BSTAR": 0.0001049665, "MEAN_MOTION_DOT": 4.43e-06, "MEAN_MOTION_DDOT": 0}, "tle": {"line1": "1 39019U 12068A   25358.28252308  .00000443  00000+0  10497-3 0  9996", "line2": "2 39019  98.1782  70.7517 0001143  86.4343 273.6987 14.58563037695355"}}, "geometry": {"type": "Point", "coordinates": [-101.2484637282505, 42.2342356242968]}}, {"type": "Feature", "properties": {"norad_id": 39030, "name": "GOKTURK 2", "group": "resource", "lat": -2.9726523692109375, "lon": -159.7488130569142, "alt_km": 647.915467091314, "timestamp": "2025-12-24T18:55:55.714080+00:00", "meta": {"OBJECT_NAME": "GOKTURK 2", "OBJECT_ID": "2012-073A", "EPOCH": "2025-12-24T07:33:04.618656", "MEAN_MOTION": 14.75304957, "ECCENTRICITY": 0.0001415, "INCLINATION": 97.6883, "RA_OF_ASC_NODE": 199.3986, "ARG_OF_PERICENTER": 108.1975, "MEAN_ANOMALY": 251.939, "EPHEMERIS_TYPE": 0, "CLASSIFICATION_TYPE": "U", "NORAD_CAT_ID": 39030, "ELEMENT_SET_NO": 999, "REV_AT_EPOCH": 69872, "BSTAR": 5.7201107e-05, "MEAN_MOTION_DOT": 3.4e-06, "MEAN_MOTION_DDOT": 0}, "tle": {"line1": "1 39030U 12073A   25358.31463679  .00000340  00000+0  57201-4 0  9995", "line2": "2 39030  97.6883 199.3986 0001415 108.1975 251.9390 14.75304957698721"}}, "geometry": {"type": "Point", "coordinates": [-159.7488130569142, -2.9726523692109375]}}, {"type": "Feature", "properties": {"norad_id": 39084, "name": "LANDSAT 8", "group": "resource", "lat": -63.44978488223387, "lon": -130.10166912178784, "alt_km": 710.369709215458, "timestamp": "2025-12-24T18:55:55.714090+00:00", "meta": {"OBJECT_NAME": "LANDSAT 8", "OBJECT_ID": "2013-008A", "EPOCH": "2025-12-24T04:37:42.378240", "MEAN_MOTION": 14.57113778, "ECCENTRICITY": 0.00010596, "INCLINATION": 98.2057, "RA_OF_ASC_NODE": 66.0965, "ARG_OF_PERICENTER": 92.9713, "MEAN_ANOMALY": 267.1606, "EPHEMERIS_TYPE": 0, "CLASSIFICATION_TYPE": "U", "NORAD_CAT_ID": 39084, "ELEMENT_SET_NO": 999, "REV_AT_EPOCH": 67241, "BSTAR": 0.0001025954, "MEAN_MOTION_DOT": 4.17e-06, "MEAN_MOTION_DDOT": 0}, "tle": {"line1": "1 39084U 13008A   25358.19285160  .00000417  00000+0  10260-3 0  9994", "line2": "2 39084  98.2057  66.0965 0001059  92.9713 267.1606 14.57113778672417"}}, "geometry": {"type": "Point", "coordinates": [-130.10166912178784, -63.44978488223387]}}, {"type": "Feature", "properties": {"norad_id": 39086, "name": "SARAL", "group": "resource", "lat": -73.38542011357976, "lon": -27.715898941741877, "alt_km": 791.8925332492317, "timestamp": "2025-12-24T18:55:55.714101+00:00", "meta": {"OBJECT_NAME": "SARAL", "OBJECT_ID": "2013-009A", "EPOCH": "2025-12-24T07:41:10.552128", "MEAN_MOTION": 14.32760929, "ECCENTRICITY": 0.00029588, "INCLINATION": 98.5503, "RA_OF_ASC_NODE": 182.0995, "ARG_OF_PERICENTER": 87.0776, "MEAN_ANOMALY": 273.0747, "EPHEMERIS_TYPE": 0, "CLASSIFICATION_TYPE": "U", "NORAD_CAT_ID": 39086, "ELEMENT_SET_NO": 999, "REV_AT_EPOCH": 67056, "BSTAR": 6.2292308e-05, "MEAN_MOTION_DOT": 1.26e-06, "MEAN_MOTION_DDOT": 0}, "tle": {"line1": "1 39086U 13009A   25358.32026102  .00000126  00000+0  62292-4 0  9991", "line2": "2 39086  98.5503 182.0995 0002958  87.0776 273.0747 14.32760929670568"}}, "geometry": {"type": "Point", "coordinates": [-27.715898941741877, -73.38542011357976]}}, {"type": "Feature", "properties": {"norad_id": 39150, "name": "GAOFEN-1", "group": "resource", "lat": 50.95734216316019, "lon": -100.86743481024347, "alt_km": 623.6497589576675, "timestamp": "2025-12-24T18:55:55.714111+00:00", "meta": {"OBJECT_NAME": "GAOFEN-1", "OBJECT_ID": "2013-018A", "EPOCH": "2025-12-24T06:58:09.130944", "MEAN_MOTION": 14.76498752, "ECCENTRICITY": 0.00185076, "INCLINATION": 97.9313, "RA_OF_ASC_NODE": 68.7449, "ARG_OF_PERICENTER": 108.0306, "MEAN_ANOMALY": 252.2923, "EPHEMERIS_TYPE": 0, "CLASSIFICATION_TYPE": "U", "NORAD_CAT_ID": 39150, "ELEMENT_SET_NO": 999, "REV_AT_EPOCH": 68243, "BSTAR": 0.00012344441, "MEAN_MOTION_DOT": 8.11e-06, "MEAN_MOTION_DDOT": 0}, "tle": {"line1": "1 39150U 13018A   25358.29038346  .00000811  00000+0  12344-3 0  9995", "line2": "2 39150  97.9313  68.7449 0018507 108.0306 252.2923 14.76498752682430"}}, "geometry": {"type": "Point", "coordinates": [-100.86743481024347, 50.95734216316019]}}, {"type": "Feature", "properties": {"norad_id": 39160, "name": "VNREDSAT 1", "group": "resource", "lat": 48.1324042585643, "lon": 44.68718111693265, "alt_km": 672.271903751348, "timestamp": "2025-12-24T18:55:55.714121+00:00", "meta": {"OBJECT_NAME": "VNREDSAT 1", "OBJECT_ID": "2013-021B", "EPOCH": "2025-12-24T07:14:07.584288", "MEAN_MOTION": 14.64939176, "ECCENTRICITY": 0.00011674, "INCLINATION": 97.9354, "RA_OF_ASC_NODE": 53.1706, "ARG_OF_PERICENTER": 82.5259, "MEAN_ANOMALY": 277.6077, "EPHEMERIS_TYPE": 0, "CLASSIFICATION_TYPE": "U", "NORAD_CAT_ID": 39160, "ELEMENT_SET_NO": 999, "REV_AT_EPOCH": 67468, "BSTAR": 0.00013409684, "MEAN_MOTION_DOT": 6.72e-06, "MEAN_MOTION_DDOT": 0}, "tle": {"line1": "1 39160U 13021B   25358.30147667  .00000672  00000+0  13410-3 0  9999", "line2": "2 39160  97.9354  53.1706 0001167  82.5259 277.6077 14.64939176674683"}}, "geometry": {"type": "Point", "coordinates": [44.68718111693265, 48.1324042585643]}}, {"type": "Feature", "properties": {"norad_id": 39227, "name": "ARIRANG-5 (KOMPSAT-5)", "group": "resource", "lat": 41.141054633618744, "lon": 176.20828412341515, "alt_km": 547.7770893187244, "timestamp": "2025-12-24T18:55:55.714131+00:00", "meta": {"OBJECT_NAME": "ARIRANG-5 (KOMPSAT-5)", "OBJECT_ID": "2013-042A", "EPOCH": "2025-12-24T07:34:27.706080", "MEAN_MOTION": 15.04479275, "ECCENTRICITY": 0.00030443, "INCLINATION": 97.6162, "RA_OF_ASC_NODE": 182.455, "ARG_OF_PERICENTER": 35.2409, "MEAN_ANOMALY": 324.9018, "EPHEMERIS_TYPE": 0, "CLASSIFICATION_TYPE": "U", "NORAD_CAT_ID": 39227, "ELEMENT_SET_NO": 999, "REV_AT_EPOCH": 67756, "BSTAR": 0.00015027893, "MEAN_MOTION_DOT": 2.042e-05, "MEAN_MOTION_DDOT": 0}, "tle": {"line1": "1 39227U 13042A   25358.31559845  .00002042  00000+0  15028-3 0  9992", "line2": "2 39227  97.6162 182.4550 0003044  35.2409 324.9018 15.04479275677567"}}, "geometry": {"type": "Point", "coordinates": [176.20828412341515, 41.141054633618744]}}, {"type": "Feature", "properties": {"norad_id": 39418, "name": "SKYSAT-A", "group": "resource", "lat": 3.081809070288456, "lon": 48.22929763827162, "alt_km": 548.3890939557623, "timestamp": "2025-12-24T18:55:55.714141+00:00", "meta": {"OBJECT_NAME": "SKYSAT-A", "OBJECT_ID": "2013-066C", "EPOCH": "2025-12-24T03:01:54.975936", "MEAN_MOTION": 15.11683099, "ECCENTRICITY": 0.00215517, "INCLINATION": 97.4086, "RA_OF_ASC_NODE": 47.9884, "ARG_OF_PERICENTER": 195.4454, "MEAN_ANOMALY": 164.6122, "EPHEMERIS_TYPE": 0, "CLASSIFICATION_TYPE": "U", "NORAD_CAT_ID": 39418, "ELEMENT_SET_NO": 999, "REV_AT_EPOCH": 66202, "BSTAR": 0.00020315901, "MEAN_MOTION_DOT": 3.412e-05, "MEAN_MOTION_DDOT": 0}, "tle": {"line1": "1 39418U 13066C   25358.12633074  .00003412  00000+0  20316-3 0  9994", "line2": "2 39418  97.4086  47.9884 0021551 195.4454 164.6122 15.11683099662028"}}, "geometry": {"type": "Point", "coordinates": [48.22929763827162, 3.081809070288456]}}, {"type": "Feature", "properties": {"norad_id": 39419, "name": "DUBAISAT-2", "group": "resource", "lat": 5.224664909910468, "lon": -11.859475472571512, "alt_km": 543.3103186656972, "timestamp": "2025-12-24T18:55:55.714151+00:00", "meta": {"OBJECT_NAME": "DUBAISAT-2", "OBJECT_ID": "2013-066D", "EPOCH": "2025-12-24T06:10:21.641088", "MEAN_MOTION": 15.08466099, "ECCENTRICITY": 0.00099263, "INCLINATION": 97.4459, "RA_OF_ASC_NODE": 348.3103, "ARG_OF_PERICENTER": 276.4624, "MEAN_ANOMALY": 83.5475, "EPHEMERIS_TYPE": 0, "CLASSIFICATION_TYPE": "U", "NORAD_CAT_ID": 39419, "ELEMENT_SET_NO": 999, "REV_AT_EPOCH": 66000, "BSTAR": 0.00050275046, "MEAN_MOTION_DOT": 7.783e-05, "MEAN_MOTION_DDOT": 0}, "tle": {"line1": "1 39419U 13066D   25358.25719492  .00007783  00000+0  50275-3 0  9990", "line2": "2 39419  97.4459 348.3103 0009926 276.4624  83.5475 15.08466099660007"}}, "geometry": {"type": "Point", "coordinates": [-11.859475472571512, 5.224664909910468]}}, {"type": "Feature", "properties": {"norad_id": 39574, "name": "GPM-CORE", "group": "resource", "lat": -47.918604060943075, "lon": 141.1720359666684, "alt_km": 434.7016026367646, "timestamp": "2025-12-24T18:55:55.714161+00:00", "meta": {"OBJECT_NAME": "GPM-CORE", "OBJECT_ID": "2014-009C", "EPOCH": "2025-12-24T02:04:37.374816", "MEAN_MOTION": 15.44634912, "ECCENTRICITY": 0.00091613, "INCLINATION": 64.9724, "RA_OF_ASC_NODE": 174.683, "ARG_OF_PERICENTER": 250.1065, "MEAN_ANOMALY": 109.9089, "EPHEMERIS_TYPE": 0, "CLASSIFICATION_TYPE": "U", "NORAD_CAT_ID": 39574, "ELEMENT_SET_NO": 999, "REV_AT_EPOCH": 67076, "BSTAR": 0.00018893016, "MEAN_MOTION_DOT": 8.614e-05, "MEAN_MOTION_DDOT": 0}, "tle": {"line1": "1 39574U 14009C   25358.08654369  .00008614  00000+0  18893-3 0  9996", "line2": "2 39574  64.9724 174.6830 0009161 250.1065 109.9089 15.44634912670768"}}, "geometry": {"type": "Point", "coordinates": [141.1720359666684, -47.918604060943075]}}]}